[{"OBJECT_NAME":"STARLINK-5887","OBJECT_ID":"2023-058AJ","EPOCH":"2026-03-09T21:26:54.370176","MEAN_MOTION":15.01259494,"ECCENTRICITY":0.00012774,"INCLINATION":97.6068,"RA_OF_ASC_NODE":70.4443,"ARG_OF_PERICENTER":108.5943,"MEAN_ANOMALY":251.542,"EPHEMERIS_TYPE":0,"CLASSIFICATION_TYPE":"U","NORAD_CAT_ID":56349,"ELEMENT_SET_NO":999,"REV_AT_EPOCH":15816,"BSTAR":-8.51777e-6,"MEAN_MOTION_DOT":-1.68e-6,"MEAN_MOTION_DDOT":0},{"OBJECT_NAME":"COSMOS 2251 DEB","OBJECT_ID":"1993-036SU","EPOCH":"2026-03-09T16:21:38.417760","MEAN_MOTION":15.03076437,"ECCENTRICITY":0.00203067,"INCLINATION":74.0425,"RA_OF_ASC_NODE":271.4678,"ARG_OF_PERICENTER":270.4432,"MEAN_ANOMALY":89.443,"EPHEMERIS_TYPE":0,"CLASSIFICATION_TYPE":"U","NORAD_CAT_ID":34451,"ELEMENT_SET_NO":999,"REV_AT_EPOCH":89938,"BSTAR":0.0023702619,"MEAN_MOTION_DOT":0.00032214,"MEAN_MOTION_DDOT":0}]
